hasName,hasLocation,hasAddress,hasLandmark,longitude,latitude,hasschoolType,phone_number
Shikshaa Matriculation High..,Chennai,"No 8, Ponniamman Koil Street, Hasthinapuram-chitlapakkam, Chennai - 600064, Near Hasthinapuram Mosque , BUS STOP", Near Hasthinapuram Mosque,80.243982476688,13.069061897342,Primary,5592102529
Narayana E Techno School,Chennai,"No: 53, MS Nagar ,Porur Kundrathur  Main Road, Madhanandapuram, Chennai - 600116, Next to Siddharth Upscale Heights",Siddharth Upscale Height,80.243982476688,13.069061897342,Nursery,6033784005
NARAYANA E-TECHNO SCHOOL PA..,Chennai,"NO 90 200 FEET ROAD ZAMIN PALLAVARAM, 200 FEET ROAD, Zamin Pallavaram, Chennai - 600043, SHELL PETROL BUNK",SHELL PETROL BUNK,80.243982476688,13.069061897342,Nursery,9642415459
Sri Venkateswara Matriculat..,Chennai,"No 104 B, 1st Main Road Alwar Thirunagar Annexe, Alwarthirunagar, Chennai - 600087, Near Mega Mart",Near Mega Mart,80.243982476688,13.069061897342,Nursery,5076301321
Narayana E-Techno School,Chennai,"No: 240, B Block, 3rd Cross Street, Ponniammanmedu, Chennai - 600110, Near Kolathur Vazhathoppu & Krishna Swimming Pool, Swamy Ramalinga Colony, Kolathur",Kolathur Vazhathoppu & Krishna Swimming Pool,80.243982476688,13.069061897342,Primary,5002853538
Angel School,Chennai,"NO 11&12, E B COLONY,LAKSHMIPURAM, Thirunindravur, Chennai - 602024, Near Indian Bank",Indian Bank,80.243982476688,13.069061897342,Nursery,4106842383
Velammal Vidhyashram,Chennai,"No 3, Walajabad Main Road, Padappai, Chennai - 601301, Salamangalam","Padappai, Chennai - 601301, Salamangalam",80.243982476688,13.069061897342,Nursery,8982784226
Narayana E - Techno School,Chennai,"No 9, Meenakshi Street Karthikeyan Nagar, Maduravoyal, Chennai - 600095, Opposite Murugan Temple",Opposite Murugan Temple,80.243982476688,13.069061897342,Nursery,3682256320
Shikshaa Public School CBSE,Chennai,"No: 8, Ponniamman Koil Street, Hasthinapuram-chitlapakkam, Chennai - 600064, Near Hastinapuram Mosque",Near Hastinapuram Mosque,80.243982476688,13.069061897342,Secondary,2460775937
Satheesh Balaji Matric. Hr...,Chennai,"No 1, College Road, Madhanakuppam, Kolathur, Chennai - 600099, Near Bharat Petrol Bunk & Soka Ikeda Womens College",Petrol Bunk & Soka Ikeda Womens College,80.243982476688,13.069061897342,Nursery,8182453243
Narayana E Techno School,Chennai,"No96 8th Block, 191st Street Muthamiz Nagar, Kodungaiyur, Chennai - 600118, Near Bhavani Amman Temple",Temple,80.243982476688,13.069061897342,Nursery,2349779181
Aadhithya International Pub..,Chennai,"No 6, 2nd Main Road Royal Garden, Goparasanallur Village, Kattupakkam, Chennai - 600056, Near Mosque",Mosque,80.243982476688,13.069061897342,Secondary,7948644177
S C S Matric Higher Seconda..,Chennai,"No 30, Ramachandra Road ,Nehru Nagar, Chromepet, Chennai - 600044, Near MIT Play Ground",MIT Play Ground,80.243982476688,13.069061897342,Primary,3466346751
Abs Global Smart School,Chennai,"No 1, Vedhachalam Garaden, Korattur, Chennai - 600050",Korattur,80.243982476688,13.069061897342,Nursery,9987125891
PNET School,Chennai,"No.616/2, Murugappa Reddy Street, Ambattur Ot Bus Terminus-Ambattur, Chennai - 600053, Aarthi Sweets","Chennai - 600053, Aarthi Sweets",80.243982476688,13.069061897342,Secondary,9940483429
Narayana E-Techno School,Chennai,"No 2,, Indira Kumari Street, Krishnaveni Nagar,, Medavakkam, Chennai - 600100, Opposite Js Grand Palace",Palace,80.243982476688,13.069061897342,Secondary,9676505555
Narayana Olympiad School,Chennai,"Narayana Group Of Schools, EB Road, Mogappair West, Chennai - 600037, Opp to E.B Office",Office,80.243982476688,13.069061897342,Nursery,4569221446
Green Valley Central School,Chennai,"No 2, Kalamegam Road, Mogappair West, chennai - 600037, Near The D.R Supermarket",D.R Supermarket,80.243982476688,13.069061897342,Primary,8683951149
Olive Public School,Chennai,"No: 1, Second Main Road Sarvamangala Nagar, Chitlapakkam, Chennai - 600064, Near Nilgiris Super Market",Market,80.243982476688,13.069061897342,Secondary,6573442291
Jain Public School,Chennai,"Royal Castle Campus, Thirumudivakkam Main Road, Chromepet, Chennai - 600044, Near Amarprakash","Chennai - 600044, Near Amarprakash",80.243982476688,13.069061897342,Secondary,6795862787
Narayana E Techno School,Chennai,"No96 8th Block, 191st Street Muthamiz Nagar, Kodungaiyur, Chennai - 600118, Near Bhavani Amman Temple",Temple,80.243982476688,13.069061897342,Nursery,1543854175
Aadhithya International Pub..,Chennai,"No 6, 2nd Main Road Royal Garden, Goparasanallur Village, Kattupakkam, Chennai - 600056, Near Mosque",Mosque,80.243982476688,13.069061897342,Secondary,7853838404
S C S Matric Higher Seconda..,Chennai,"No 30, Ramachandra Road ,Nehru Nagar, Chromepet, Chennai - 600044, Near MIT Play Ground",MIT Play Ground,80.243982476688,13.069061897342,Nursery,2886979570
Abs Global Smart School,Chennai,"No 1, Vedhachalam Garaden, Korattur, Chennai - 600050",Korattur,80.243982476688,13.069061897342,Primary,8242887511
PNET School,Chennai,"No.616/2, Murugappa Reddy Street, Ambattur Ot Bus Terminus-Ambattur, Chennai - 600053, Aarthi Sweets","Chennai - 600053, Aarthi Sweets",80.243982476688,13.069061897342,Secondary,2886456291
Narayana E-Techno School,Chennai,"No 2,, Indira Kumari Street, Krishnaveni Nagar,, Medavakkam, Chennai - 600100, Opposite Js Grand Palace",Palace,80.243982476688,13.069061897342,Secondary,5043087094
Narayana Olympiad School,Chennai,"Narayana Group Of Schools, EB Road, Mogappair West, Chennai - 600037, Opp to E.B Office",Office,80.243982476688,13.069061897342,Primary,6815382198
Green Valley Central School,Chennai,"No 2, Kalamegam Road, Mogappair West, chennai - 600037, Near The D.R Supermarket",D.R Supermarket,80.243982476688,13.069061897342,Primary,5321984006
Olive Public School,Chennai,"No: 1, Second Main Road Sarvamangala Nagar, Chitlapakkam, Chennai - 600064, Near Nilgiris Super Market",Market,80.243982476688,13.069061897342,Nursery,7133086930
Jain Public School,Chennai,"Royal Castle Campus, Thirumudivakkam Main Road, Chromepet, Chennai - 600044, Near Amarprakash","Chennai - 600044, Near Amarprakash",80.243982476688,13.069061897342,Nursery,4436617300
Serene Preschool & Daycare,Chennai,"No 14/19, Sivaganga Main Road, Nungambakkam, Chennai - 600034, Adjacent to Wheatcroft Road",to Wheatcroft Road,80.243982476688,13.069061897342,Secondary,1170749474
Kidzee Padur & Kelambakkam,Chennai,"Plot No 2/24, Suseela Nagar Omr, Kelambakkam, Chennai - 603103, Near HDFC Bank Kelambakkam",HDFC Bank Kelambakkam,80.243982476688,13.069061897342,Nursery,4143229099
D A Ve Baba Vidyalaya,Chennai,"No 16, Vandikaran Street, Velacheri, Chennai - 600042, Opposite to Check Post",to Check Post,80.243982476688,13.069061897342,Secondary,3755807046
Kidzee,Chennai,"No 1 Tranquill Nest, 3rd Main Road Kamakoti Nagar Annexe, Pallikaranai, Chennai - 600100, Near Balaji Dental Hosiptal",Balaji Dental Hosiptal,80.243982476688,13.069061897342,Nursery,3233494748
Little Millennium,Chennai,"Old No :13 New No :26, Vivekananda Street, Gandhi Nagar, Avadi, Chennai - 600054, Old Sales Tax Office Building",,80.243982476688,13.069061897342,Primary,9462731608
Vagisha Vidhyalaya,Chennai,"Vagisha School, 1312/5, Outer Ring Road, Kundrathur, Chennai - 600069, Outer Ring Road /Earikarai Junction",Junction,80.243982476688,13.069061897342,Primary,4500357750
Narayana E-Techno School,Chennai,"No 2/212, 2nd Avenue, Prabala Nagar, ECR Road,, Vettuvankeni, Chennai - 600115",,80.243982476688,13.069061897342,Primary,9479597292
Sri Krish School,Chennai,"No 1/191, Kundrathur Main Road Rajiv Gandhi Nagar, Kovur, Chennai - 600122",,80.243982476688,13.069061897342,Secondary,1799195434
Abs Global Smart School,Chennai,"No 1, Tonekala Road, Avadi, Chennai - 600054, Near St Peters College",St Peters College,80.243982476688,13.069061897342,Primary,6906374842
World Kids Play School,Chennai,"No. 10/5, Durai Raj Street,Devaraj Nagar, Saligramam, Chennai - 600093, Near By Sangar Narayanan Temple",Sangar Narayanan Templ,80.243982476688,13.069061897342,Primary,1496553884
Serene Preschool & Daycare,Chennai,"No 14/19, Sivaganga Main Road, Nungambakkam, Chennai - 600034, Adjacent to Wheatcroft Road",to Wheatcroft Road,80.243982476688,13.069061897342,Primary,6843554177
Kidzee Padur & Kelambakkam,Chennai,"Plot No 2/24, Suseela Nagar Omr, Kelambakkam, Chennai - 603103, Near HDFC Bank Kelambakkam",HDFC Bank Kelambakkam,80.243982476688,13.069061897342,Secondary,4384045889
D A Ve Baba Vidyalaya,Chennai,"No 16, Vandikaran Street, Velacheri, Chennai - 600042, Opposite to Check Post",to Check Post,80.243982476688,13.069061897342,Nursery,8632561675
Kidzee,Chennai,"No 1 Tranquill Nest, 3rd Main Road Kamakoti Nagar Annexe, Pallikaranai, Chennai - 600100, Near Balaji Dental Hosiptal",Balaji Dental Hosiptal,80.243982476688,13.069061897342,Secondary,4638664202
Little Millennium,Chennai,"Old No :13 New No :26, Vivekananda Street, Gandhi Nagar, Avadi, Chennai - 600054, Old Sales Tax Office Building",,80.243982476688,13.069061897342,Secondary,1167998242
Vagisha Vidhyalaya,Chennai,"Vagisha School, 1312/5, Outer Ring Road, Kundrathur, Chennai - 600069, Outer Ring Road /Earikarai Junction",Junction,80.243982476688,13.069061897342,Nursery,2516787285
Narayana E-Techno School,Chennai,"No 2/212, 2nd Avenue, Prabala Nagar, ECR Road,, Vettuvankeni, Chennai - 600115",,80.243982476688,13.069061897342,Secondary,9035026434
Sri Krish School,Chennai,"No 1/191, Kundrathur Main Road Rajiv Gandhi Nagar, Kovur, Chennai - 600122",,80.243982476688,13.069061897342,Secondary,5750966535
Abs Global Smart School,Chennai,"No 1, Tonekala Road, Avadi, Chennai - 600054, Near St Peters College",St Peters College,80.243982476688,13.069061897342,Secondary,5111654695
World Kids Play School,Chennai,"No. 10/5, Durai Raj Street,Devaraj Nagar, Saligramam, Chennai - 600093, Near By Sangar Narayanan Temple",Sangar Narayanan Templ,80.243982476688,13.069061897342,Nursery,9229206886
Narayana E-Techno School,Chennai,"No 2,, West Lakshmi Nagar, Mannivakkam, Chennai - 600048, Mudichur Road, Near to Natesan Bus Stop","Mudichur Road, Near to Natesan",80.243982476688,13.069061897342,Primary,7653937087
Narayana Olympiad School,Chennai,"No 15, EVK Sampath Road, Vepery, Chennai - 600007, Opposite Vepery Fire Station",Vepery Fire Station,80.243982476688,13.069061897342,Nursery,5381618039
Achariya Group Of Schools,Chennai,"No. 329, 20th Street, Sri Krishna Nagar, Alapakkam, Chennai - 600116, Near Achariya Play School",School,80.243982476688,13.069061897342,Primary,8802850360
Funkidz (Anna Nagar),Chennai,"No 2674 Y Block, 9TH Block 12th Main Road Shanthi Colony, Anna Nagar, Chennai - 600040, Near SMF","Chennai - 600040, Near SMF",80.243982476688,13.069061897342,Nursery,1322600569
Little Expertz,Chennai,"No 23, Engineer Sampath Garden Tsd Nagar Extn, Arumbakkam, Chennai - 600106, Near State Bank Of India",Bank Of Indi,80.243982476688,13.069061897342,Primary,1182721947
Little Pearls Play School,Chennai,"No 5, Ethiraj Amal Avenue Pillaiyar Koil Street, Kavankarai-Puzhal, Chennai - 600066, Near Mmm Towers",Towers,80.243982476688,13.069061897342,Primary,3472546965
Narayana E-Techno School,Chennai,"No 152, Poonamallee High Road, Poonamallee, Chennai - 600056, Near ACS Medical College",ACS Medical College,80.243982476688,13.069061897342,Primary,2242803524
Star Play School Daycare,Chennai,"No 02/144, 1st Main Road Ramachandra Nagar, Iyyappanthangal, Chennai - 600077, Near Bus Depot",Near Bus Depot,80.243982476688,13.069061897342,Primary,7011941328
Amethyst International Scho..,Chennai,"No 298,, Karanai Main Road,Chithalapakkam,Ottiyampakkam,Chemenjari,, Navalur, Chennai - 600130, Near Dlf Garden City",,80.243982476688,13.069061897342,Secondary,9173927573
Annai Violet International ..,Chennai,"No 11, Red Hills Road, Ambattur, Chennai - 600053, Anna Anadhi Illam, Pudur",Anna Anadhi,80.243982476688,13.069061897342,Nursery,9610797710
Narayana E-Techno School,Chennai,"No 152, Poonamallee High Road, Poonamallee, Chennai - 600056, Near ACS Medical College",ACS Medical College,80.243982476688,13.069061897342,Secondary,8817681474
Star Play School Daycare,Chennai,"No 02/144, 1st Main Road Ramachandra Nagar, Iyyappanthangal, Chennai - 600077, Near Bus Depot",Near Bus Depot,80.243982476688,13.069061897342,Nursery,6084604639
Amethyst International Scho..,Chennai,"No 298,, Karanai Main Road,Chithalapakkam,Ottiyampakkam,Chemenjari,, Navalur, Chennai - 600130, Near Dlf Garden City",,80.243982476688,13.069061897342,Primary,9599548637
Annai Violet International ..,Chennai,"No 11, Red Hills Road, Ambattur, Chennai - 600053, Anna Anadhi Illam, Pudur",Anna Anadhi,80.243982476688,13.069061897342,Secondary,6207286014
Manav Public School,Chandigarh,"Plot No -1701, Naya Gaon, Chandigarh - 160103, Near Church  , Dashmesh Nagar Ramleela Ground Road T",Ground Road T,76.78114776,30.72377802,Secondary,5915328038
New India Senior Secondary ..,Chandigarh,"Near Main Market, Panchkula Sector 15, Panchkula - 134113, Opposite  House No-116",,76.78114776,30.72377802,Primary,3539830790
tiny tots Foundation School,Chandigarh,"Plot No .-5, Nr. Niper, Phase-10, Mohali, Mohali, Chandigarh - 160062",,76.78114776,30.72377802,Primary,7768751311
Tender Heart High School,Chandigarh,"Chandigarh Sector 33b, Chandigarh - 160020, Opposite House Number","Chandigarh - 160020, Opposite",76.78114776,30.72377802,Nursery,8766747801
Narayan E - Techno School,Chandigarh,"Puda Gateway City, Sector 119, Mohali Sas Nagar, Mohali - 160055",Mohali Sas Nagar,76.78114776,30.72377802,Primary,8147058078
St Soldiers School,Chandigarh,"Near Main Market, Sector 16, Panchkula, Panchkula - 134109",Panchkula,76.78114776,30.72377802,Nursery,3840816757
Groots Pre School,Chandigarh,"Green Park Colony, Lohgarh Road, Zirakpur HO, Zirakpur - 140603, Near Congress Office",Near Congress Office,76.78114776,30.72377802,Primary,1298958460
Global Wisdom International..,Chandigarh,"Dashmesh Nagar, Derabassi Barwala Road, Derabassi, Zirakpur - 140507",Derabassi,76.78114776,30.72377802,Primary,3161371450
Sherwood Convent School,Chandigarh,"SAS Nagar Mohali, Chandigarh Sector 59 Phase 4, Chandigarh - 160059, In Front Of Kothi Number 173",Of Kothi Number 17,76.78114776,30.72377802,Nursery,4305362438
Oakridge International Scho..,Chandigarh,"Landran, Mohali - 140307, Near Greater Mohali, Near Thunder Zone Amusement Park","Near Greater Mohali, Near Thunder Zone",76.78114776,30.72377802,Primary,5053621282
Brilliance World School,Chandigarh,"Site Number 1,Sector 12, Panchkula, Panchkula - 134109, Near Yadav Bhavan",Near Yadav Bhavan,76.78114776,30.72377802,Nursery,6024081982
Saint Soldier International..,Chandigarh,"Sector 28-B, Chandigarh Sector 28b, Chandigarh - 160102",,76.78114776,30.72377802,Primary,2771706005
D C Montessori Senior Secon..,Chandigarh,"Pocket No. 2 & 3, Mani Majra, Chandigarh - 160101, Near Modern Housing Complex",Modern Housing Complex,76.78114776,30.72377802,Nursery,5405839500
Stepping Stones Senior Seco..,Chandigarh,"Stepping Stones, Sector 37d, Chandigarh - 160036",Sector 37d,76.78114776,30.72377802,Secondary,3333757022
Sanjivni Preparatory School..,Chandigarh,"House Number  44, Sector 11, Chandigarh - 160011, Behind Sector 11 D Market and Half Kilometre Away From Police Station",,76.78114776,30.72377802,Secondary,2366106916
D.c. MODEL Senior Secondary..,Chandigarh,"Panchkula, Main Market, Panchkula Sector 7, Panchkula - 134108, NEAR GURUDWARA","Panchkula - 134108, NEAR GURUDWARA",76.78114776,30.72377802,Nursery,8969433757
Rise Campus Chandigarh,Chandigarh,"Sco 91 ,92, 93, Ground Floor, Chandigarh Sector 34a, Chandigarh - 160022, Piccadily Cinema","Chandigarh - 160022, Piccadily Cinema",76.78114776,30.72377802,Primary,7736577710
Solitaire International Sch..,Chandigarh,"Opp. Suncity Parikarma, Sector 20, Panchkula - 134116",Sector 20,76.78114776,30.72377802,Primary,1320811818
International Public School,Chandigarh,"Paprali Road, Kurali, Mohali - 140103, Near Over  Bridge","Mohali - 140103, Near",76.78114776,30.72377802,Secondary,5063885039
Diamond Public School,Chandigarh,"Mundi Kharar, Lic Colony Road, Kharar, Mohali - 140301, Near Gurudwara","Mohali - 140301, Near Gurudwara",76.78114776,30.72377802,Nursery,2674536789
VSS International Public Sc..,Bangalore,"No:78, Outer Ring Road, Nagadevanahalli, Bangalore - 560060, Behind Bangalore University",Behind Bangalore University,77.59840577,12.96679387,Secondary,5345278469
St. Johns School,Bangalore,"Bhuvaneshwari Nagar,Kempapura,Coffee Board Layout, Hebbal, Bangalore - 560024, Near Water Tank","Bangalore - 560024, Near",77.59840577,12.96679387,Nursery,5971202113
The School For Global Minds,Bangalore,"Brigade Orchards, Devanahalli, Bangalore - 562110, Opposite Aspen Block","Bangalore - 562110, Opposite",77.59840577,12.96679387,Primary,8690312165
Carmel Public School,Bangalore,"No 2, 5th Cross , M S Layout, Jarganahalli, Jp Nagar 6th Phase, Bangalore - 560078, Near Sarakki Signal",,77.59840577,12.96679387,Primary,2729779060
Basil Woods Nature School,Bangalore,"MS Palya Road, Lakshmipura Cross, Bangalore - 560097, Near Sambhram College","Bangalore - 560097, Near",77.59840577,12.96679387,Primary,2331443514
Brs Global School,Bangalore,"No 317/2, Bidaraguppe Village, Attibele, Bangalore - 562107, Sarjapura Attibee Road",Sarjapura Attibee Road,77.59840577,12.96679387,Secondary,3314365796
St Joseph Chaminade Academy,Bangalore,"No. 1, Anekal Taluk, Deepahalli, Anandpura Village, Bommasandra, Bangalore - 560099, Opposite to Concorde Sylvan View Apartments",Sylvan V,77.59840577,12.96679387,Primary,2337180205
Bs International School,Bangalore,"No 228/4, S. Bingipura, Electronic City Phase 1, Bangalore - 560100, Near Holistic Life Care",Care,77.59840577,12.96679387,Secondary,7331567811
Chistiya International Scho..,Bangalore,"Gunjur, Whitefield-Sarjapur Road, Varthur, Bangalore - 560087, Near Gunjur Bus Stop",Gunjur Bus Stop,77.59840577,12.96679387,Primary,4243780602
MS Dhoni Global School,Bangalore,"No 47/1A,1B, Hsr Extension(South), Kudulu Gate, Bangalore - 560068, Opposite to Cadenza Apartments",,77.59840577,12.96679387,Secondary,1179307915
The Millennium School,Bangalore,"Sri Jnanagiri Educational Trust, No.57, Hessarghatta Main Road, Tarabanahalli, Bangalore - 560090","Road, Tarabanahalli, Bangalore - 560090",77.59840577,12.96679387,Nursery,1115781837
Holy Child Convent,Bangalore,"No 1133/44,, 9th Cross, Banashankari 1st Stage, Bangalore - 560050, Near Shankarnag Circle",Near Shankarnag Circle,77.59840577,12.96679387,Primary,5578618345
Divine School,Bangalore,"No.640, 1st Main Road, Yeshwanthpur, Bangalore - 560022, Opposite Adhishwar Home Appliances",Adhishwar Home Appliances,77.59840577,12.96679387,Secondary,2716700091
The Home School,Bangalore,"CA No.4, U M Kaval, Kanakapura Road, Bangalore - 560062, Opposite Shobha Apartments",Opposite Shobha Apartments,77.59840577,12.96679387,Secondary,2368096736
Mvm Central School,Bangalore,"Kannamangala, Kempegowda International Airport Road, Devanahalli, Bangalore - 562110",Devanahalli,77.59840577,12.96679387,Secondary,5747948577
Mount Litera Zee School,Bangalore,"No 40/123, Kadugodi, Bangalore - 560067, Near Satya Sai Baba Ashram and Skylark Arcade",,77.59840577,12.96679387,Nursery,5078374519
Lady Vailankanni Group Of I..,Bangalore,"No 175/2, Lady Vailankanni Road, Varthur, Bangalore - 560087, Behind Varthur Vinayaka Theater,Near Varthur Government Hospital",,77.59840577,12.96679387,Nursery,6753744355
Radcliffe School,Bangalore,"15th Milestone, Gottigere, Bannerghatta Road, Bangalore - 560076, Next to Rml Law College",Rml Law College,77.59840577,12.96679387,Primary,3519433160
SJES Institutions,Bangalore,"No 4, Medahalli,Old Madras Road, Virgonagar, Bangalore - 560049, Opposite to RTO",,77.59840577,12.96679387,Nursery,4717893372
EuroKids,Bangalore,"HIG B 46, Surya City Phase 1 Chandapura, Chandapura, Bangalore - 560081, Near Chadapura  Anekal Road",Chadapura  Anekal Road,77.59840577,12.96679387,Nursery,1439126605
Groots Pre School,Chandigarh,"Green Park Colony, Lohgarh Road, Zirakpur HO, Zirakpur - 140603, Near Congress Office",Near Congress Office,76.78114776,30.72377802,Primary,8266378387
Saint Soldier International..,Chandigarh,"Sector 28-B, Chandigarh Sector 28b, Chandigarh - 160102",,76.78114776,30.72377802,Nursery,8482034748
D.c. MODEL Senior Secondary..,Chandigarh,"Panchkula, Main Market, Panchkula Sector 7, Panchkula - 134108, NEAR GURUDWARA","Panchkula - 134108, NEAR GURUDWARA",76.78114776,30.72377802,Primary,1067332879
D C Montessori Senior Secon..,Chandigarh,"Pocket No. 2 & 3, Mani Majra, Chandigarh - 160101, Near Modern Housing Complex",Modern Housing Complex,76.78114776,30.72377802,Secondary,1813374572
Sanjivni Preparatory School..,Chandigarh,"House Number  44, Sector 11, Chandigarh - 160011, Behind Sector 11 D Market and Half Kilometre Away From Police Station",,76.78114776,30.72377802,Secondary,6582496050
Stepping Stones Senior Seco..,Chandigarh,"Stepping Stones, Sector 37d, Chandigarh - 160036",Sector 37d,76.78114776,30.72377802,Secondary,2494092253
International Public School,Chandigarh,"Paprali Road, Kurali, Mohali - 140103, Near Over  Bridge","Mohali - 140103, Near",76.78114776,30.72377802,Nursery,5123294121
Solitaire International Sch..,Chandigarh,"Opp. Suncity Parikarma, Sector 20, Panchkula - 134116",Sector 20,76.78114776,30.72377802,Nursery,8013037052
Diamond Public School,Chandigarh,"Mundi Kharar, Lic Colony Road, Kharar, Mohali - 140301, Near Gurudwara","Mohali - 140301, Near Gurudwara",76.78114776,30.72377802,Primary,3471806108
Canadian Smart Playway Scho..,Chandigarh,"#98Block B, Inner Market Road, Kharar, Kharar - 140301, Near Police Post Sunny Enclave",Post Sunny Enclave,76.78114776,30.72377802,Secondary,6918321029
Rise Campus Chandigarh,Chandigarh,"Sco 91 ,92, 93, Ground Floor, Chandigarh Sector 34a, Chandigarh - 160022, Piccadily Cinema","Chandigarh - 160022, Piccadily Cinema",76.78114776,30.72377802,Secondary,9577018846
shivjyotiboardingschool.com,Chandigarh,"Rathkankara , Rawatbhata Road, Rawatbhata Road Kota, Rawat Bhata Road, Kota-Rajasthan - 324001","Road, Kota-Rajasthan - 324001",76.78114776,30.72377802,Nursery,5966867988
Dikshant International Scho..,Chandigarh,"Zirakpur-Panchkula Kalka Highway, Zirakpur Ho, Zirakpur - 140603, Nationsl Highway-22","Zirakpur - 140603, Nationsl",76.78114776,30.72377802,Secondary,1943840421
St. Stephens School,Chandigarh,"Backside Dev Samaj Coolage, Main Road, Chandigarh Sector 45b, Chandigarh - 160047, Near Savri Masjid",Masjid,76.78114776,30.72377802,Primary,7172173375
St. Stephens School,Chandigarh,"Sector 46-a, Chandigarh Sector 46a, Chandigarh - 160047",,76.78114776,30.72377802,Primary,3865337123
Dikshant Global School,Chandigarh,"Savitry Greens, Vip Road, Zirakpur Ho, Zirakpur - 140603, NH-22, Zirakpur-Panchkula  Kalka Highway","NH-22, Zirakpur-Panchkula",76.78114776,30.72377802,Secondary,8374598968
Delhi Public Schools,Chandigarh,"Chandigarh Sector 40c, Chandigarh - 160036",,76.78114776,30.72377802,Nursery,5851582359
St Annes Convent School,Chandigarh,"Office, Sec 32 C, Chandigarh Sector 32c, Chandigarh - 160047, Goswami Ganesh Dutta Sanatan Dharam College-Chandigarh Sector 32c",Chandigarh Sector 32c,76.78114776,30.72377802,Secondary,2007679993
St. Johns High School,Chandigarh,"Chandigarh Sector 26, Chandigarh - 160026, Opposite Khalsa College","Chandigarh - 160026, Opposite",76.78114776,30.72377802,Secondary,7413050683
Manav Mangal Smart School,Chandigarh,"Chandigarh - 160059, Phase- 10, Sector- 64",,76.78114776,30.72377802,Primary,9962736780
Dikshant Global School,Chandigarh,"Savitry Greens, Vip Road, Zirakpur Ho, Zirakpur - 140603, NH-22, Zirakpur-Panchkula  Kalka Highway","NH-22, Zirakpur-Panchkula",76.78114776,30.72377802,Nursery,4088645695
Delhi Public Schools,Chandigarh,"Chandigarh Sector 40c, Chandigarh - 160036",,76.78114776,30.72377802,Primary,9705020997
St Annes Convent School,Chandigarh,"Office, Sec 32 C, Chandigarh Sector 32c, Chandigarh - 160047, Goswami Ganesh Dutta Sanatan Dharam College-Chandigarh Sector 32c",Chandigarh Sector 32c,76.78114776,30.72377802,Nursery,6521120351
St. Johns High School,Chandigarh,"Chandigarh Sector 26, Chandigarh - 160026, Opposite Khalsa College","Chandigarh - 160026, Opposite",76.78114776,30.72377802,Primary,8237963665
Manav Mangal Smart School,Chandigarh,"Chandigarh - 160059, Phase- 10, Sector- 64",,76.78114776,30.72377802,Primary,4990969110
T.I.M.E School,Hyderabad,"Survey No 30/P, Ashraya Educational Socitey, Bandlaguda, Hyderabad - 500093, Near Saraswathi Vidya Peeth",Saraswathi Vidya Peeth,78.43789349,17.40072528,Secondary,7213916630
T.i.m.e. School,Hyderabad,"Survey No  220 221, Aparajitha Educational Society, Medchal, Rangareddy - 501401, Near Ayodhya X Road",Road,78.43789349,17.40072528,Primary,1909201629
Elate International School,Hyderabad,"Plot No 6-1-24, Venkateshwara Colony, Alkapuri, Manikonda, Hyderabad - 500089, Neknapur Road, Near Dollar Hills",Near Dollar Hill,78.43789349,17.40072528,Secondary,5904612197
Laurus The Universal School,Hyderabad,"Survey No : 165, Bachupally Road, Bowrampet, Rangareddy - 500043",Bowrampet,78.43789349,17.40072528,Primary,3824998926
Sarathi School,Hyderabad,"Sarathi School, Habsiguda X Roads, Habsiguda, Hyderabad - 500007, Opposite Ccmb","Hyderabad - 500007, Opposite Ccmb",78.43789349,17.40072528,Secondary,5320530845
Gurukula Vidyapeeth High Sc..,Hyderabad,"H.No 7-147, Ibrahimpatnam, Rangareddy - 501506, Near Gurunanak Engineering College",,78.43789349,17.40072528,Nursery,5015041133
KKR Gowtham Concept School,Hyderabad,"Ecil X Roads, Kushaiguda, Hyderabad - 500062, Opposite Manisha Gardens, Moulali to Ecil X Roads",Roads,78.43789349,17.40072528,Nursery,1688739887
Camritz Global Schools,Hyderabad,"Padmashali Colony, Kavadiguda, Hyderabad - 500020, Near Queens High School","Hyderabad - 500020, Near Queens",78.43789349,17.40072528,Primary,7900840325
Camritz Global School,Hyderabad,"Plot No 1, Steert No 9, Venkateshwara Swamy Temple, Uppal, Hyderabad - 500039, Rajashekar Colony, Near Balaji Hills",,78.43789349,17.40072528,Primary,2442713908
Noble School,Hyderabad,"Door No 1-8-270, Street No 10, Soap Factory Lane, Bagh Lingampally, Hyderabad - 500044, Opposite Ambedkar College",,78.43789349,17.40072528,Nursery,5373659576
Unicent International Schoo..,Hyderabad,"Sarada Nagar Colony, Hafeezpet, Hyderabad - 500049",Hafeezpet,78.43789349,17.40072528,Nursery,7203288812
Joy International School,Hyderabad,"Plot No 44A & 41 Anirich Industrial Estate, Mallampet-Bachupally, Hyderabad - 500090, Behind Mamata Academy Of Medical Sciences",,78.43789349,17.40072528,Nursery,8293743944
Iris Florets Play School,Hyderabad,"Iris 1-8-702/77, Street No2 Padma Clony, Nallakunta, Hyderabad - 500044, Near SL Diagnostics Center",SL Diagnostics Cente,78.43789349,17.40072528,Nursery,9232801652
Madina Public School,Hyderabad,"Door No 3-6-126, Street No 18, Himayat Nagar, Hyderabad - 500029, Beside Lane to Mochi Foot Wear",Mochi Foot Wear,78.43789349,17.40072528,Secondary,1459133154
Sanford The Global School,Hyderabad,"Survey No 204/2, Huda Mayuri Nagar, Miyapur, Hyderabad - 500049, Near HDFC Bank, Beside SMR Hilands",Beside SMR Hiland,78.43789349,17.40072528,Nursery,9165903482
Cremon Buds Montessori Hous..,Hyderabad,"Plot No 48, P &T Colony, Karkhana, Secunderabad, Hyderabad - 500003, Behind Oxygen Hospital",Behind Oxygen Hospital,78.43789349,17.40072528,Secondary,6990091061
Gateway International High ..,Hyderabad,"Door No 1-2-13, Rajdendra Nagar, Shiva Sai Colony, Budvel, Hyderabad - 500030, Near New Green City",,78.43789349,17.40072528,Secondary,6198100162
St Peters Schools,Hyderabad,"Survey No 2, Seetharampur, Bowenpally, Hyderabad - 500011, Near Malla Reddy Gardens",Malla Reddy Gardens,78.43789349,17.40072528,Secondary,7410632636
Siddhartha Public School,Hyderabad,"House No 9/21, Hanuman Nagar, Boduppal, Hyderabad - 500039, Opposite AVI Clinic",Opposite AVI Clinic,78.43789349,17.40072528,Nursery,6998877584
Ingenium World School,Hyderabad,"HNO 238, Nallagandla Main Road, Nallaganla Huda, Lingampally, Hyderabad - 500019, Near Rathnadeep Super Market",Market,78.43789349,17.40072528,Nursery,5778592631
Adamas International School,Kolkata,"Building No  58,4, M M Feeder Road, Belgharia, Kolkata - 700056, Near Rathtala","Kolkata - 700056, Near Rathtala",88.38969847,22.56296886,Secondary,3052663238
Adamas World School,Kolkata,"Adamas Knoweldge City Campus, Barrackpore Barasat Road, Navapally, Kolkata - 700126, Beside Anandabazar Patrika Office",Office,88.38969847,22.56296886,Nursery,2193039108
Shree Bharati High School,Kolkata,"Jheel Bagan, Hatiara, Kolkata - 700157",Hatiara,88.38969847,22.56296886,Secondary,7829601933
Ruby Park Public School,Kolkata,"P 17, Transport Depot Road, Taratala, Kolkata - 700088, Behind Alipore Mint,Near Taratala Crosing",,88.38969847,22.56296886,Primary,8309040397
Nalanda Vidyapeeth,Kolkata,"Ramchandrapur, Joka, Kolkata - 700104, Near Thakupukur Hospital","Kolkata - 700104, Near",88.38969847,22.56296886,Secondary,6871721422
Bihani Academy,Kolkata,"Diamond Harbour Road, Joka, Kolkata - 700104, Near-Bishnupur",Kolkata - 700104,88.38969847,22.56296886,Primary,4225837651
Oxford Academy English Medi..,Kolkata,"28G,, B B Sengupta Road, Behala, Kolkata - 700034, Near-Gangaram Pur Kali Bari",Pur Kali Bari,88.38969847,22.56296886,Nursery,8427527670
National Model High School ..,Kolkata,"Jessore Road, Michael Nagar, Kolkata - 700133, Near Gyani Petrol Pump, Michael Nagar","Pump, Michael Nagar",88.38969847,22.56296886,Primary,7666543955
Pramila Memorial Institute,Kolkata,"A B 8 / 23, Deshbandhu Nagar, Baguiati, Kolkata - 700059, Near Deshbandhu Nagar Post Office",Nagar Post Office,88.38969847,22.56296886,Secondary,5683442637
Little Millennium Circus Av..,Kolkata,"Little Millenium, 34 Circus Avenue, Circus Avenue, Kolkata - 700017, Beside Haji Saheb Restaurant",Haji Saheb Restaurant,88.38969847,22.56296886,Secondary,5736900697
Purushottam Bhagchandka Aca..,Kolkata,"63no, Mahatma Gandhi Road, Sirity, Kolkata - 700041, Near Karunamoye More Tollygung",Karunamoye More Tollygung,88.38969847,22.56296886,Secondary,7420403296
Joseph Day School,Kolkata,"49/L/1a, Dr Lalmohan Bhattacharya Road, Entally, Kolkata - 700014, Near Entally Police Station",Entally Police Station,88.38969847,22.56296886,Nursery,7644981667
Central Point School,Kolkata,"Amrabati More, Sodepur, Kolkata - 700110",Sodepur,88.38969847,22.56296886,Secondary,2072890618
Euro Kids International Sch..,Kolkata,"P17, Arcadia, Behala, Behala, Kolkata - 700034, Opposite Ashoka Cinema Hall","Kolkata - 700034, Opposite Ashoka",88.38969847,22.56296886,Nursery,3856848661
Iem Public School,Kolkata,"GE4/1, Sector 3, Salt Lake City, Salt Lake City Sector 3, Kolkata - 700106, Near Tank No 12 & Behind NIFT Girl","Sector 3, Kolkata - 700106, Near Tank No 12 & Behind NIFT Girl",88.38969847,22.56296886,Primary,2805464070
Glitzz Academia,Kolkata,"19, Lake Temple Road, Sarat Bose Road, Kolkata - 700029, Beside Shib Mandir",Beside Shib Mandir,88.38969847,22.56296886,Nursery,4441526581
The Master & Thunderbird Pr..,Kolkata,"572, Ramkrishna Nagar, P&T Colony, Laskarpur, Kolkata - 700153, Near Hindustan More",Hindustan More,88.38969847,22.56296886,Nursery,8497284990
Calcutta High School,Kolkata,"6/2  Kustia Road, Tiljala, Kolkata - 700039, Near Kustia More",,88.38969847,22.56296886,Nursery,5705115536
Metec International School,Kolkata,"145 Kalpukur, Krishnanagar Road, Barasat, Kolkata - 700126, Near Barasat Fire Brigade",Barasat Fire Brigade,88.38969847,22.56296886,Nursery,9373618116
The New Holy Child School,Kolkata,"EC 74, Raj Danga Main Road, East Kolkata Township, Kolkata - 700107, Opposite Siemens Office",Office,88.38969847,22.56296886,Secondary,2200483140
Joy International School,Hyderabad,"Plot No 44A & 41 Anirich Industrial Estate, Mallampet-Bachupally, Hyderabad - 500090, Behind Mamata Academy Of Medical Sciences",,78.43789349,17.40072528,Primary,9760397444
Iris Florets Play School,Hyderabad,"Iris 1-8-702/77, Street No2 Padma Clony, Nallakunta, Hyderabad - 500044, Near SL Diagnostics Center",SL Diagnostics Cente,78.43789349,17.40072528,Primary,1892698257
Sarathi School,Hyderabad,"Sarathi School, Habsiguda X Roads, Habsiguda, Hyderabad - 500007, Opposite Ccmb","Hyderabad - 500007, Opposite Ccmb",78.43789349,17.40072528,Primary,5072593928
Madina Public School,Hyderabad,"Door No 3-6-126, Street No 18, Himayat Nagar, Hyderabad - 500029, Beside Lane to Mochi Foot Wear",Mochi Foot Wear,78.43789349,17.40072528,Nursery,2824129438
Sanford The Global School,Hyderabad,"Survey No 204/2, Huda Mayuri Nagar, Miyapur, Hyderabad - 500049, Near HDFC Bank, Beside SMR Hilands",Beside SMR Hiland,78.43789349,17.40072528,Secondary,7091578758
Gateway International High ..,Hyderabad,"Door No 1-2-13, Rajdendra Nagar, Shiva Sai Colony, Budvel, Hyderabad - 500030, Near New Green City",,78.43789349,17.40072528,Primary,4775416028
Siddhartha Public School,Hyderabad,"House No 9/21, Hanuman Nagar, Boduppal, Hyderabad - 500039, Opposite AVI Clinic",Opposite AVI Clinic,78.43789349,17.40072528,Secondary,1194163940
Bhanodaya High School,Hyderabad,"PANDURANGA NAGAR, Attapur, Hyderabad - 500048",Attapur,78.43789349,17.40072528,Secondary,2873032303
Ingenium World School,Hyderabad,"HNO 238, Nallagandla Main Road, Nallaganla Huda, Lingampally, Hyderabad - 500019, Near Rathnadeep Super Market",Market,78.43789349,17.40072528,Secondary,8710103021
Camritz Global School,Hyderabad,"Plot No 1, Steert No 9, Venkateshwara Swamy Temple, Uppal, Hyderabad - 500039, Rajashekar Colony, Near Balaji Hills",,78.43789349,17.40072528,Primary,8851679045
MNR High School,Hyderabad,"Door No 48-252/1, Surya Nagar, Chintal, Hyderabad - 500054, Near Idpl Colony",Near Idpl Colony,78.43789349,17.40072528,Secondary,2501903414
LAADLAY School Of Excellenc..,Hyderabad,"Plot No 28.Phase 1, Bairagiguda, Hyderabad - 500008, Shiva Sai Nagar, Phase 1 Gandipet Mandal",Mandal,78.43789349,17.40072528,Primary,1680738542
Radcliffe School Hyderabad,Hyderabad,"House No 6-30,31&32,, Bala Nagar, Hyderabad - 500037","Bala Nagar, Hyderabad - 500037",78.43789349,17.40072528,Primary,6397982811
Cremon Buds Montessori Hous..,Hyderabad,"Plot No 48, P &T Colony, Karkhana, Secunderabad, Hyderabad - 500003, Behind Oxygen Hospital",Behind Oxygen Hospital,78.43789349,17.40072528,Primary,7332304165
Kiddie Kare,Hyderabad,"Road No 12 Paparaydu Nagar Colony, V V NAGAR, Kukatpally, Hyderabad - 500072, Opp Dav Primary School",Dav Primary Schoo,78.43789349,17.40072528,Nursery,9401757491
Nagarjuna High School,Hyderabad,"Door No 6-6/B, Whisper Valley Road, Raidurgam, Hyderabad - 500081, Near Mehfil Hotel, Raidurg Dargha","Hotel, Raidurg Dargh",78.43789349,17.40072528,Primary,8009735646
Ayush Kids Pre School & Day..,Hyderabad,"E 82, Sainikpuri Road, Sainikpuri, Hyderabad - 500094, Beside BBharath Petrol Bunk",BBharath Petrol Bunk,78.43789349,17.40072528,Secondary,3588741731
Tejasa Primary School,Hyderabad,"1-1-647/A, Gandhi Nagar, Gandhi Nagar, Hyderabad - 500080, Near Canara Bank",Near Canara Bank,78.43789349,17.40072528,Nursery,1052400325
Unicent International Schoo..,Hyderabad,"Sarada Nagar Colony, Hafeezpet, Hyderabad - 500049",Hafeezpet,78.43789349,17.40072528,Nursery,2663400320
Cubs The Play School,Hyderabad,"Plot No 68, PG Road, Secunderabad, Secunderabad - 500003, Near KIMS Hospital, Bapu Bagh Colony",Colony,78.43789349,17.40072528,Nursery,3026298887
Nagarjuna High School,Hyderabad,"Door No 6-6/B, Whisper Valley Road, Raidurgam, Hyderabad - 500081, Near Mehfil Hotel, Raidurg Dargha","Hotel, Raidurg Dargh",78.43789349,17.40072528,Secondary,8899300414
Ayush Kids Pre School & Day..,Hyderabad,"E 82, Sainikpuri Road, Sainikpuri, Hyderabad - 500094, Beside BBharath Petrol Bunk",BBharath Petrol Bunk,78.43789349,17.40072528,Primary,3938016215
Tejasa Primary School,Hyderabad,"1-1-647/A, Gandhi Nagar, Gandhi Nagar, Hyderabad - 500080, Near Canara Bank",Near Canara Bank,78.43789349,17.40072528,Primary,5299679965
Unicent International Schoo..,Hyderabad,"Sarada Nagar Colony, Hafeezpet, Hyderabad - 500049",Hafeezpet,78.43789349,17.40072528,Secondary,5072023673
Cubs The Play School,Hyderabad,"Plot No 68, PG Road, Secunderabad, Secunderabad - 500003, Near KIMS Hospital, Bapu Bagh Colony",Colony,78.43789349,17.40072528,Secondary,4638833386
Akshara Academy CBSE School,Coimbatore,"KNG Pudur Pirivu, Thadagam Road, TVS Nagar, Coimbatore - 641025, Near By Kng Cross",By Kng Cross,76.96874072,11.01165601,Nursery,5818422314
Dhanalakshmi Nursery and Pr..,Coimbatore,"No. 5/3,, Marutha Thevar Lane,, Sulur, Coimbatore - 641402, Opposite Mahaliamman Kovil,",,76.96874072,11.01165601,Nursery,5615892410
Nairs Vidhya Mandir,Coimbatore,"Ammans Nagar II, NGGO Colony, Coimbatore - 641022",NGGO Colony,76.96874072,11.01165601,Nursery,1726561278
Rvs Matric School,Coimbatore,"NO;1, Trichy Road, Sulur, coimbatore - 641402, Near RVS Bus Stop",RVS Bus Stop,76.96874072,11.01165601,Secondary,2639025296
Rathinam International Publ..,Coimbatore,"Rathinam Techzone Campus, Rathinam College Road, Eachanari, Coimbatore - 641021, Near By Rathinam IT Park",Park,76.96874072,11.01165601,Secondary,8833286404
Prodigy International Monte..,Coimbatore,"No -106, Periyar Nagar , Balan Nagar, Peelamedu, Coimbatore - 641004, Opp to Reliance Fresh","Coimbatore - 641004, Opp to",76.96874072,11.01165601,Primary,5748949007
Vethathiri Speech Congnitiv..,Coimbatore,"No 17, Lakshmanan Nagar 2nd Street, Tatabad, Coimbatore - 641012, Backside Ooty House",Backside Ooty House,76.96874072,11.01165601,Nursery,2507399491
Nava Bharath National Schoo..,Coimbatore,"No. 142/2, Sathy Main Road, Annur, Coimbatore - 641653, Near Pattarai","Coimbatore - 641653, Near Pattarai",76.96874072,11.01165601,Nursery,5086776253
Junior Delhi Public School,Coimbatore,"No 48, 2nd West Cross, Bharthi Colony, Bharathi Colony-Peelamedu, Coimbatore - 641004, Opp. Rotary Community Hall",Rotary Community Hal,76.96874072,11.01165601,Primary,6546590805
Little Millennium,Coimbatore,"HIG 1636, Gandhimaanagar, Peelamedu, Coimbatore - 641004, Near Telephone Exchange",Near Telephone Exchange,76.96874072,11.01165601,Secondary,8329543812
The Ideal Mount Litera Zee ..,Coimbatore,"No 1081 / 2, Ideal Nagar, Kalapatti, Coimbatore - 641048, Kurumbapalayam Road","Coimbatore - 641048, Kurumbapalayam Road",76.96874072,11.01165601,Nursery,6071152401
Kovai Public School,Coimbatore,"Elachipalayam Road, Karumathampatti, Coimbatore - 641659, Near Chenniyandavar Kovil","Coimbatore - 641659, Near",76.96874072,11.01165601,Secondary,7748844399
Prodigy International Monte..,Coimbatore,"Door No 2A/1,, Andal Street, Lakshmipuram,, Peelamedu, Coimbatore - 641004, Behind Manis Theatre,","Behind Manis Theatre,",76.96874072,11.01165601,Secondary,6430473849
Narayana E-Techno School,Coimbatore,"No.142,144/2 Lakshmi Garden, Shanthini Nagar, Ganapathy, Coimbatore - 641006, Behind Ramakrishnamill Water Tank",,76.96874072,11.01165601,Nursery,6094932253
Little Flower Matriculation..,Coimbatore,"Vellakinar Village,, Kurudampalayam, Vellakinar, Coimbatore - 641029, Near Manchester School",,76.96874072,11.01165601,Secondary,7369863195
Kennedy Matriculation Highe..,Coimbatore,"No 2,, Muthiazhagan Nagar,Trichy Road, Sulur, Coimbatore - 641402, Opp Union Bank",,76.96874072,11.01165601,Nursery,3100393740
Little Champ Daycare and Pl..,Coimbatore,"No 2, Rangammal Kovil Street, Papanaickenpalayam, Coimbatore - 641037, Near GKNM Hospital",Near GKNM Hospital,76.96874072,11.01165601,Primary,2184056611
SEED Preschool,Coimbatore,"No 22 G, Kongu Nagar East , Trichy Road, Ramanathapuram Coimbatore, Coimbatore - 641045, Opposite Alvernia School","Coimbatore - 641045, Opposite",76.96874072,11.01165601,Primary,8812820822
Little Miracle Academy,Coimbatore,"No 41, Balaji Nagar, Ramanathapuram Coimbatore, Coimbatore - 641045, Thirupathi Mess","Coimbatore - 641045, Thirupathi Mess",76.96874072,11.01165601,Primary,2462804874
Einstein Kids International..,Coimbatore,"43, Hindustan Avenue,Nava India Mainroad, Sowripalayam, Coimbatore - 641028, Near Hindustan College",,76.96874072,11.01165601,Secondary,1622712586
Little Millennium Preschool,Indore,"L M School Address 433-434 Gumasta Nagar, Gumasta Nagar, Indore - 452009, Opposet Veshno Kaniya Vidhiyalay",Veshno Kaniya Vidhiyala,75.85706582,22.72118074,Primary,3597263051
Narayana E-Techno School,Indore,"Narayana E Techno School, 149/1/1/1 Bicholi Mardana, Ring Road, Indore - 452010, Near Sahara City Opp Sampath Hills",Opp Sampath Hills,75.85706582,22.72118074,Nursery,3197471229
Gaurav Vaibhav Higher Secod..,Indore,"Behind Hotel Siddhant, Sanwer Road, Shri Aurobindo, Indore - 453555",Shri Aurobindo,75.85706582,22.72118074,Primary,9975638985
Sdps International School,Indore,"Near New Rani Baug Colony, Khandwa Road, Indore - 452020, Opposite Bilawali Tank","Indore - 452020, Opposite",75.85706582,22.72118074,Nursery,2927730233
Birla Open Minds Internatio..,Indore,"Birla School, Jhalaria Road Bypass, Jhalaria, Indore - 452016, Near Countywalk Township",Near Countywalk Township,75.85706582,22.72118074,Secondary,8838122758
Billabong High Internationa..,Indore,"MIST Campus, Ujjain Road-Indore GPO, Indore - 452001, Behind Aurobindo Hospital","Indore - 452001, Behind",75.85706582,22.72118074,Nursery,2914627227
Sardar Patel International ..,Indore,"Khatri Khedi, Kanadia Main Road, Kanadia, Indore - 452016",Kanadia,75.85706582,22.72118074,Secondary,1973062067
Little Diamonds Pre School,Indore,"Neminagar Extension No 60, Kesar Baugh Road, Annapurna Road, Indore - 452009",Annapurna Road,75.85706582,22.72118074,Primary,8948837057
Shri Anand H.S. School,Indore,"Dwarkapuri, Indore - 452013, Parivahan Nagar, Near Hava Banglow","Parivahan Nagar, Near",75.85706582,22.72118074,Primary,8766619495
The Bhavans Prominent Inter..,Indore,"The Bhavans, Nipania Indore, Indore - 452010, Near Bombay Hospital","Indore - 452010, Near",75.85706582,22.72118074,Primary,1953837447
Ecs Bagless School,Indore,"Mr-3, Plot No 408-411, Behind Pioneer College, Mahalaxmi Nagar, Indore - 452010, Near Suncity",,75.85706582,22.72118074,Secondary,7317438097
The Kingston Junior,Indore,"Plot No 43 /7/1/2, Behind Namarta Garden, Nipania Indore, Indore - 452010, Near Bcm Paradise & Apollo DB City",Apollo DB City,75.85706582,22.72118074,Primary,5590985825
Lakewood International Scho..,Indore,"140/1,Bisnavda, Near Cement Bricks Factory, Rinjlai, Indore - 453112, Airport Road Indore",Airport Road Indore,75.85706582,22.72118074,Nursery,8751129341
Dr. Vishwanath Karad World ..,Indore,"Gat No. 296/297, Gandhi Nagar, Gandhi Nagar, Indore - 453112, Opp. to HP Petrol Pump",Pump,75.85706582,22.72118074,Nursery,5461701903
Sherringwoods World School,Indore,"04, Gyanas Park, Kanadiya Road, Telephone Nagar, Indore - 452018, Near Swayamber Garden","Indore - 452018, Near",75.85706582,22.72118074,Primary,3098968638
The Vedansh International S..,Indore,"Airport Road, Indore - 452001, Nr.Police Station","Indore - 452001, Nr",75.85706582,22.72118074,Nursery,1684075291
Daisy Dales School,Indore,"19, Scheme No 78, Vijay Nagar, Indore - 452010, Part II","Indore - 452010, Part II",75.85706582,22.72118074,Nursery,3340302029
Castlewood International Pr..,Indore,"26 , Indra Gandhi Nagar, RTO Road, Kesar Baug Road, Indore - 452009, Opposite Punjab National Bank ATM",National Bank AT,75.85706582,22.72118074,Nursery,4306697302
Jagruti Higher Secondary Sc..,Indore,"9/3 Manormaganj, Manoramaganj, Indore - 452001, Near Geeta Bhavan Temple",,75.85706582,22.72118074,Nursery,6440368124
Maa Umiya Patidar Trust,Indore,"Umiyadham, Rangwasa, Rau Rangwasa Road, Rau, Indore - 453331, Umiiyadham",Indore,75.85706582,22.72118074,Primary,2632645343
Kovai Public School,Coimbatore,"Elachipalayam Road, Karumathampatti, Coimbatore - 641659, Near Chenniyandavar Kovil","Coimbatore - 641659, Near",76.96874072,11.01165601,Secondary,4755348970
The Ideal Mount Litera Zee ..,Coimbatore,"No 1081 / 2, Ideal Nagar, Kalapatti, Coimbatore - 641048, Kurumbapalayam Road","Coimbatore - 641048, Kurumbapalayam Road",76.96874072,11.01165601,Nursery,3591185023
Prodigy International Monte..,Coimbatore,"Door No 2A/1,, Andal Street, Lakshmipuram,, Peelamedu, Coimbatore - 641004, Behind Manis Theatre,","Behind Manis Theatre,",76.96874072,11.01165601,Secondary,2624915423
Junior Delhi Public School,Coimbatore,"No 48, 2nd West Cross, Bharthi Colony, Bharathi Colony-Peelamedu, Coimbatore - 641004, Opp. Rotary Community Hall",Rotary Community Hal,76.96874072,11.01165601,Secondary,1039983137
Little Flower Matriculation..,Coimbatore,"Vellakinar Village,, Kurudampalayam, Vellakinar, Coimbatore - 641029, Near Manchester School",,76.96874072,11.01165601,Secondary,7140400070
Sri Sathya Sai Vidhya Niket..,Coimbatore,"2/182 A Norena Garden, Vadavalli, Coimbatore - 641041",,76.96874072,11.01165601,Primary,6478628160
Kennedy Matriculation Highe..,Coimbatore,"No 2,, Muthiazhagan Nagar,Trichy Road, Sulur, Coimbatore - 641402, Opp Union Bank",,76.96874072,11.01165601,Secondary,2086805035
Tiny Wings Play School,Coimbatore,"237 E 2, Anna Nagar, Sundarapuram, Coimbatore - 641024, Behind Abirami Hospital",Behind Abirami Hospital,76.96874072,11.01165601,Secondary,7408490984
Little Champ Daycare and Pl..,Coimbatore,"No 2, Rangammal Kovil Street, Papanaickenpalayam, Coimbatore - 641037, Near GKNM Hospital",Near GKNM Hospital,76.96874072,11.01165601,Secondary,5705974269
Svgv Matriculation Higher S..,Coimbatore,"Mtp Road, Mettupalayam, Coimbatore - 641301",Mettupalayam,76.96874072,11.01165601,Nursery,1171305672
Little Miracle Academy,Coimbatore,"No 41, Balaji Nagar, Ramanathapuram Coimbatore, Coimbatore - 641045, Thirupathi Mess","Coimbatore - 641045, Thirupathi Mess",76.96874072,11.01165601,Primary,8875848386
Rathinam International Publ..,Coimbatore,"Avinashi Road, Peelamedu, Coimbatore - 641004, Opposite Suguna Kalyana Mandapam","Coimbatore - 641004, Opposite Suguna",76.96874072,11.01165601,Primary,6852684231
Einstein Kids International..,Coimbatore,"43, Hindustan Avenue,Nava India Mainroad, Sowripalayam, Coimbatore - 641028, Near Hindustan College",,76.96874072,11.01165601,Primary,7837514220
Happy Home Nursery & Primar..,Coimbatore,"No 36/37/38, Mahalakshmi Gardens, Cheran Ma Nagar, Coimbatore - 641035, Dhyan Accupuncture Hospital",Dhyan Accupuncture Hospital,76.96874072,11.01165601,Nursery,6157216549
Venba Kids,Coimbatore,"Kgisl Platina Apartment, Keeranatham Road, Saravanampatti, Coimbatore - 641035, Kgisl Platina Appartment",Kgisl Platina Appartment,76.96874072,11.01165601,Primary,4349784351
Eurokids,Coimbatore,"No 1, Elachipalayam Road, Somanur, Coimbatore - 641668, Karumathampatti to Pulakkatu Thottam",to Pulakkatu Thottam,76.96874072,11.01165601,Nursery,9117104920
Little Ville,Coimbatore,"17, Thirunagar, Dhanalakshmipuram North, Singanallur, Coimbatore - 641005, Near Central Studio Bus Stop","Coimbatore - 641005, Near Central Studio",76.96874072,11.01165601,Nursery,3970777059
Sai Gurukulam International..,Coimbatore,"No B-91, Cheran Ma Nagar, Coimbatore - 641035, Near Third Bus Stop, Siva Temple Cheran Ma Nagar,Near Shiva Temple",,76.96874072,11.01165601,Secondary,1355982578
Ruby Matric Higher Secondar..,Coimbatore,"New Keeranatham Road, Saravanampatti, Coimbatore - 641035, Near Kgisl",Coimbatore - 641035,76.96874072,11.01165601,Secondary,1440486267
Kidgees Play School And Day..,Coimbatore,"No.30, Ambedkar road, Velandipalayam, Coimbatore - 641025",Velandipalayam,76.96874072,11.01165601,Nursery,1016357028
Little Ville,Coimbatore,"17, Thirunagar, Dhanalakshmipuram North, Singanallur, Coimbatore - 641005, Near Central Studio Bus Stop","Coimbatore - 641005, Near Central Studio",76.96874072,11.01165601,Nursery,7553819243
Sai Gurukulam International..,Coimbatore,"No B-91, Cheran Ma Nagar, Coimbatore - 641035, Near Third Bus Stop, Siva Temple Cheran Ma Nagar,Near Shiva Temple",,76.96874072,11.01165601,Secondary,4861014853
Ruby Matric Higher Secondar..,Coimbatore,"New Keeranatham Road, Saravanampatti, Coimbatore - 641035, Near Kgisl",Coimbatore - 641035,76.96874072,11.01165601,Primary,7130692634
Kidgees Play School And Day..,Coimbatore,"No.30, Ambedkar road, Velandipalayam, Coimbatore - 641025",Velandipalayam,76.96874072,11.01165601,Primary,7545677653
